start=new Date('2022-11-30T00:00:00.000Z').valueOf();
sats=[{"REF_FRAME":"TEME","RCS_SIZE":"LARGE","MEAN_MOTION_DDOT":"0.0000000000000","INCLINATION":"53.2162","LAUNCH_DATE":"2022-10-20","COUNTRY_CODE":"US","APOAPSIS":"352.106","EPOCH":"2022-11-29T22:00:00.999936","MEAN_MOTION_DOT":"-0.00579305","MEAN_ELEMENT_THEORY":"SGP4","OBJECT_ID":"2022-136AR","SITE":"AFETR","PERIAPSIS":"347.054","MEAN_MOTION":"15.73263152","ARG_OF_PERICENTER":"337.8462","RA_OF_ASC_NODE":"308.4020","TLE_LINE2":"2 54090  53.2162 308.4020 0003755 337.8462  51.2218 15.73263152  1307","GP_ID":"219114286","TLE_LINE1":"1 54090U 22136AR  22333.91667824 -.00579305  00000-0 -43987-2 0  9992","REV_AT_EPOCH":"130","OBJECT_NAME":"STARLINK-5177","PERIOD":"91.530","CENTER_NAME":"EARTH","ELEMENT_SET_NO":"999","SEMIMAJOR_AXIS":"6727.715","MEAN_ANOMALY":"51.2218","EPHEMERIS_TYPE":"0","BSTAR":"-0.00439870000000","OBJECT_TYPE":"PAYLOAD","CLASSIFICATION_TYPE":"U","ECCENTRICITY":"0.00037550","DECAY_DATE":null,"FILE":"3673849","NORAD_CAT_ID":"54090","TIME_SYSTEM":"UTC"},{"ARG_OF_PERICENTER":"345.1114","MEAN_MOTION":"15.73292674","RA_OF_ASC_NODE":"308.3996","SITE":"AFETR","PERIAPSIS":"347.040","REV_AT_EPOCH":"130","TLE_LINE2":"2 54091  53.2164 308.3996 0003651 345.1114  46.3619 15.73292674  1303","GP_ID":"219114805","TLE_LINE1":"1 54091U 22136AS  22333.91667824 -.00544635  00000-0 -41134-2 0  9993","INCLINATION":"53.2164","MEAN_MOTION_DDOT":"0.0000000000000","LAUNCH_DATE":"2022-10-20","REF_FRAME":"TEME","RCS_SIZE":"LARGE","EPOCH":"2022-11-29T22:00:00.999936","MEAN_ELEMENT_THEORY":"SGP4","MEAN_MOTION_DOT":"-0.00544635","OBJECT_ID":"2022-136AS","COUNTRY_CODE":"US","APOAPSIS":"351.952","CLASSIFICATION_TYPE":"U","OBJECT_TYPE":"PAYLOAD","BSTAR":"-0.00411340000000","NORAD_CAT_ID":"54091","FILE":"3673849","TIME_SYSTEM":"UTC","ECCENTRICITY":"0.00036510","DECAY_DATE":null,"CENTER_NAME":"EARTH","ELEMENT_SET_NO":"999","OBJECT_NAME":"STARLINK-5221","PERIOD":"91.528","EPHEMERIS_TYPE":"0","MEAN_ANOMALY":"46.3619","SEMIMAJOR_AXIS":"6727.631"},{"SITE":"AFETR","PERIAPSIS":"347.405","MEAN_MOTION":"15.73169206","ARG_OF_PERICENTER":"340.9209","RA_OF_ASC_NODE":"308.4044","GP_ID":"219113938","TLE_LINE2":"2 54092  53.2168 308.4044 0003631 340.9209  47.6354 15.73169206  1303","TLE_LINE1":"1 54092U 22136AT  22333.91667824 -.00539030  00000-0 -40901-2 0  9998","REV_AT_EPOCH":"130","REF_FRAME":"TEME","RCS_SIZE":"LARGE","LAUNCH_DATE":"2022-10-20","INCLINATION":"53.2168","MEAN_MOTION_DDOT":"0.0000000000000","COUNTRY_CODE":"US","APOAPSIS":"352.291","MEAN_MOTION_DOT":"-0.00539030","MEAN_ELEMENT_THEORY":"SGP4","EPOCH":"2022-11-29T22:00:00.999936","OBJECT_ID":"2022-136AT","BSTAR":"-0.00409010000000","OBJECT_TYPE":"PAYLOAD","CLASSIFICATION_TYPE":"U","ECCENTRICITY":"0.00036310","DECAY_DATE":null,"FILE":"3673849","NORAD_CAT_ID":"54092","TIME_SYSTEM":"UTC","OBJECT_NAME":"STARLINK-5190","PERIOD":"91.535","CENTER_NAME":"EARTH","ELEMENT_SET_NO":"999","SEMIMAJOR_AXIS":"6727.983","MEAN_ANOMALY":"47.6354","EPHEMERIS_TYPE":"0"},{"DECAY_DATE":null,"ECCENTRICITY":"0.00036870","TIME_SYSTEM":"UTC","FILE":"3673849","NORAD_CAT_ID":"54093","OBJECT_TYPE":"PAYLOAD","BSTAR":"-0.00410140000000","CLASSIFICATION_TYPE":"U","SEMIMAJOR_AXIS":"6727.589","MEAN_ANOMALY":"46.2989","EPHEMERIS_TYPE":"0","PERIOD":"91.527","OBJECT_NAME":"STARLINK-5213","ELEMENT_SET_NO":"999","CENTER_NAME":"EARTH","TLE_LINE1":"1 54093U 22136AU  22333.91667824 -.00543478  00000-0 -41014-2 0  9996","TLE_LINE2":"2 54093  53.2163 308.3971 0003687 345.7668  46.2989 15.73307560  1306","GP_ID":"219113765","REV_AT_EPOCH":"130","PERIAPSIS":"346.973","SITE":"AFETR","RA_OF_ASC_NODE":"308.3971","MEAN_MOTION":"15.73307560","ARG_OF_PERICENTER":"345.7668","APOAPSIS":"351.934","COUNTRY_CODE":"US","OBJECT_ID":"2022-136AU","EPOCH":"2022-11-29T22:00:00.999936","MEAN_ELEMENT_THEORY":"SGP4","MEAN_MOTION_DOT":"-0.00543478","RCS_SIZE":"LARGE","REF_FRAME":"TEME","INCLINATION":"53.2163","MEAN_MOTION_DDOT":"0.0000000000000","LAUNCH_DATE":"2022-10-20"},{"OBJECT_ID":"2022-136AV","EPOCH":"2022-11-29T22:00:00.999936","MEAN_ELEMENT_THEORY":"SGP4","MEAN_MOTION_DOT":"-0.00487312","APOAPSIS":"352.099","COUNTRY_CODE":"US","MEAN_MOTION_DDOT":"0.0000000000000","INCLINATION":"53.2165","LAUNCH_DATE":"2022-10-20","RCS_SIZE":"LARGE","REF_FRAME":"TEME","REV_AT_EPOCH":"130","TLE_LINE1":"1 54094U 22136AV  22333.91667824 -.00487312  00000-0 -36712-2 0  9990","TLE_LINE2":"2 54094  53.2165 308.4016 0003453 342.1516  48.1915 15.73194660  1309","GP_ID":"219114632","RA_OF_ASC_NODE":"308.4016","MEAN_MOTION":"15.73194660","ARG_OF_PERICENTER":"342.1516","PERIAPSIS":"347.452","SITE":"AFETR","MEAN_ANOMALY":"48.1915","EPHEMERIS_TYPE":"0","SEMIMAJOR_AXIS":"6727.910","ELEMENT_SET_NO":"999","CENTER_NAME":"EARTH","PERIOD":"91.533","OBJECT_NAME":"STARLINK-5219","TIME_SYSTEM":"UTC","NORAD_CAT_ID":"54094","FILE":"3673849","DECAY_DATE":null,"ECCENTRICITY":"0.00034530","CLASSIFICATION_TYPE":"U","BSTAR":"-0.00367120000000","OBJECT_TYPE":"PAYLOAD"},{"EPOCH":"2022-11-29T22:00:00.999936","MEAN_MOTION_DOT":"-0.00479880","MEAN_ELEMENT_THEORY":"SGP4","OBJECT_ID":"2022-136AW","COUNTRY_CODE":"US","APOAPSIS":"351.817","MEAN_MOTION_DDOT":"0.0000000000000","INCLINATION":"53.2162","LAUNCH_DATE":"2022-10-20","REF_FRAME":"TEME","RCS_SIZE":"LARGE","REV_AT_EPOCH":"130","TLE_LINE2":"2 54095  53.2162 308.3958 0003629 343.0762  50.1280 15.73334896  1304","GP_ID":"219114460","TLE_LINE1":"1 54095U 22136AW  22333.91667824 -.00479880  00000-0 -35900-2 0  9990","ARG_OF_PERICENTER":"343.0762","MEAN_MOTION":"15.73334896","RA_OF_ASC_NODE":"308.3958","SITE":"AFETR","PERIAPSIS":"346.934","MEAN_ANOMALY":"50.1280","EPHEMERIS_TYPE":"0","SEMIMAJOR_AXIS":"6727.511","CENTER_NAME":"EARTH","ELEMENT_SET_NO":"999","OBJECT_NAME":"STARLINK-5193","PERIOD":"91.525","FILE":"3673849","NORAD_CAT_ID":"54095","TIME_SYSTEM":"UTC","ECCENTRICITY":"0.00036290","DECAY_DATE":null,"CLASSIFICATION_TYPE":"U","OBJECT_TYPE":"PAYLOAD","BSTAR":"-0.00359000000000"},{"DECAY_DATE":null,"ECCENTRICITY":"0.00033970","TIME_SYSTEM":"UTC","NORAD_CAT_ID":"54096","FILE":"3673849","BSTAR":"-0.00405490000000","OBJECT_TYPE":"PAYLOAD","CLASSIFICATION_TYPE":"U","SEMIMAJOR_AXIS":"6727.684","MEAN_ANOMALY":"49.2925","EPHEMERIS_TYPE":"0","PERIOD":"91.529","OBJECT_NAME":"STARLINK-5188","ELEMENT_SET_NO":"999","CENTER_NAME":"EARTH","TLE_LINE1":"1 54096U 22136AX  22333.91667824 -.00536895  00000-0 -40549-2 0  9996","GP_ID":"219113591","TLE_LINE2":"2 54096  53.2163 308.3994 0003397 341.5865  49.2925 15.73274021  1303","REV_AT_EPOCH":"130","PERIAPSIS":"347.264","SITE":"AFETR","RA_OF_ASC_NODE":"308.3994","MEAN_MOTION":"15.73274021","ARG_OF_PERICENTER":"341.5865","APOAPSIS":"351.835","COUNTRY_CODE":"US","OBJECT_ID":"2022-136AX","MEAN_MOTION_DOT":"-0.00536895","MEAN_ELEMENT_THEORY":"SGP4","EPOCH":"2022-11-29T22:00:00.999936","RCS_SIZE":"LARGE","REF_FRAME":"TEME","LAUNCH_DATE":"2022-10-20","INCLINATION":"53.2163","MEAN_MOTION_DDOT":"0.0000000000000"},{"ECCENTRICITY":"0.00037500","DECAY_DATE":null,"FILE":"3673849","NORAD_CAT_ID":"54097","TIME_SYSTEM":"UTC","OBJECT_TYPE":"PAYLOAD","BSTAR":"0.00060258000000","CLASSIFICATION_TYPE":"U","SEMIMAJOR_AXIS":"6727.993","MEAN_ANOMALY":"52.6281","EPHEMERIS_TYPE":"0","OBJECT_NAME":"STARLINK-5197","PERIOD":"91.535","CENTER_NAME":"EARTH","ELEMENT_SET_NO":"999","TLE_LINE2":"2 54097  53.2153 308.3566 0003750   0.3669  52.6281 15.73165712  1302","GP_ID":"219114112","TLE_LINE1":"1 54097U 22136AY  22333.91667824  .00084703  00000-0  60258-3 0  9991","REV_AT_EPOCH":"130","SITE":"AFETR","PERIAPSIS":"347.335","ARG_OF_PERICENTER":"0.3669","MEAN_MOTION":"15.73165712","RA_OF_ASC_NODE":"308.3566","COUNTRY_CODE":"US","APOAPSIS":"352.381","EPOCH":"2022-11-29T22:00:00.999936","MEAN_ELEMENT_THEORY":"SGP4","MEAN_MOTION_DOT":"0.00084703","OBJECT_ID":"2022-136AY","REF_FRAME":"TEME","RCS_SIZE":"MEDIUM","MEAN_MOTION_DDOT":"0.0000000000000","INCLINATION":"53.2153","LAUNCH_DATE":"2022-10-20"},{"PERIAPSIS":"347.233","SITE":"AFETR","RA_OF_ASC_NODE":"308.3953","ARG_OF_PERICENTER":"354.1178","MEAN_MOTION":"15.73283886","TLE_LINE1":"1 54098U 22136AZ  22333.91667824 -.00405675  00000-0 -30149-2 0  9994","GP_ID":"219114287","TLE_LINE2":"2 54098  53.2162 308.3953 0003401 354.1178  39.7268 15.73283886  1305","REV_AT_EPOCH":"130","RCS_SIZE":"LARGE","REF_FRAME":"TEME","LAUNCH_DATE":"2022-10-20","INCLINATION":"53.2162","MEAN_MOTION_DDOT":"0.0000000000000","APOAPSIS":"351.809","COUNTRY_CODE":"US","OBJECT_ID":"2022-136AZ","MEAN_ELEMENT_THEORY":"SGP4","MEAN_MOTION_DOT":"-0.00405675","EPOCH":"2022-11-29T22:00:00.999936","OBJECT_TYPE":"PAYLOAD","BSTAR":"-0.00301490000000","CLASSIFICATION_TYPE":"U","DECAY_DATE":null,"ECCENTRICITY":"0.00034010","TIME_SYSTEM":"UTC","NORAD_CAT_ID":"54098","FILE":"3673849","PERIOD":"91.528","OBJECT_NAME":"STARLINK-5217","ELEMENT_SET_NO":"999","CENTER_NAME":"EARTH","SEMIMAJOR_AXIS":"6727.656","EPHEMERIS_TYPE":"0","MEAN_ANOMALY":"39.7268"},{"REV_AT_EPOCH":"130","GP_ID":"219114806","TLE_LINE2":"2 54099  53.2161 308.3915 0003645 352.7102  42.9090 15.73294218  1304","TLE_LINE1":"1 54099U 22136BA  22333.91667824 -.00369263  00000-0 -27308-2 0  9990","MEAN_MOTION":"15.73294218","ARG_OF_PERICENTER":"352.7102","RA_OF_ASC_NODE":"308.3915","SITE":"AFETR","PERIAPSIS":"347.039","MEAN_MOTION_DOT":"-0.00369263","MEAN_ELEMENT_THEORY":"SGP4","EPOCH":"2022-11-29T22:00:00.999936","OBJECT_ID":"2022-136BA","COUNTRY_CODE":"US","APOAPSIS":"351.944","LAUNCH_DATE":"2022-10-20","INCLINATION":"53.2161","MEAN_MOTION_DDOT":"0.0000000000000","REF_FRAME":"TEME","RCS_SIZE":"LARGE","FILE":"3673849","NORAD_CAT_ID":"54099","TIME_SYSTEM":"UTC","ECCENTRICITY":"0.00036450","DECAY_DATE":null,"CLASSIFICATION_TYPE":"U","BSTAR":"-0.00273080000000","OBJECT_TYPE":"PAYLOAD","MEAN_ANOMALY":"42.9090","EPHEMERIS_TYPE":"0","SEMIMAJOR_AXIS":"6727.627","CENTER_NAME":"EARTH","ELEMENT_SET_NO":"999","OBJECT_NAME":"STARLINK-5198","PERIOD":"91.528"}];
